; Drawing test: 100 x 50 mm rectangle, four 3 mm holes
; Hole edges are 3 mm from the nearest rectangle edges.
; Surface: 120 mm below Delta X 3 home Z (-291.280 -> -411.280)
G28
G90
M204 A500.000
G01 F100.000
G01 Z-401.280
G01 X-50.000 Y-25.000
G01 F30.000
G01 X-50.000 Y-25.000 Z-411.280
G01 X50.000 Y-25.000 Z-411.280
G01 X50.000 Y25.000 Z-411.280
G01 X-50.000 Y25.000 Z-411.280
G01 X-50.000 Y-25.000 Z-411.280
G01 F100.000
G01 Z-401.280
G01 F100.000
G01 Z-401.280
G01 X-44.000 Y-20.500
G01 F30.000
G01 X-44.000 Y-20.500 Z-411.280
G01 X-44.051 Y-20.112 Z-411.280
G01 X-44.201 Y-19.750 Z-411.280
G01 X-44.439 Y-19.439 Z-411.280
G01 X-44.750 Y-19.201 Z-411.280
G01 X-45.112 Y-19.051 Z-411.280
G01 X-45.500 Y-19.000 Z-411.280
G01 X-45.888 Y-19.051 Z-411.280
G01 X-46.250 Y-19.201 Z-411.280
G01 X-46.561 Y-19.439 Z-411.280
G01 X-46.799 Y-19.750 Z-411.280
G01 X-46.949 Y-20.112 Z-411.280
G01 X-47.000 Y-20.500 Z-411.280
G01 X-46.949 Y-20.888 Z-411.280
G01 X-46.799 Y-21.250 Z-411.280
G01 X-46.561 Y-21.561 Z-411.280
G01 X-46.250 Y-21.799 Z-411.280
G01 X-45.888 Y-21.949 Z-411.280
G01 X-45.500 Y-22.000 Z-411.280
G01 X-45.112 Y-21.949 Z-411.280
G01 X-44.750 Y-21.799 Z-411.280
G01 X-44.439 Y-21.561 Z-411.280
G01 X-44.201 Y-21.250 Z-411.280
G01 X-44.051 Y-20.888 Z-411.280
G01 X-44.000 Y-20.500 Z-411.280
G01 F100.000
G01 Z-401.280
G01 F100.000
G01 Z-401.280
G01 X47.000 Y-20.500
G01 F30.000
G01 X47.000 Y-20.500 Z-411.280
G01 X46.949 Y-20.112 Z-411.280
G01 X46.799 Y-19.750 Z-411.280
G01 X46.561 Y-19.439 Z-411.280
G01 X46.250 Y-19.201 Z-411.280
G01 X45.888 Y-19.051 Z-411.280
G01 X45.500 Y-19.000 Z-411.280
G01 X45.112 Y-19.051 Z-411.280
G01 X44.750 Y-19.201 Z-411.280
G01 X44.439 Y-19.439 Z-411.280
G01 X44.201 Y-19.750 Z-411.280
G01 X44.051 Y-20.112 Z-411.280
G01 X44.000 Y-20.500 Z-411.280
G01 X44.051 Y-20.888 Z-411.280
G01 X44.201 Y-21.250 Z-411.280
G01 X44.439 Y-21.561 Z-411.280
G01 X44.750 Y-21.799 Z-411.280
G01 X45.112 Y-21.949 Z-411.280
G01 X45.500 Y-22.000 Z-411.280
G01 X45.888 Y-21.949 Z-411.280
G01 X46.250 Y-21.799 Z-411.280
G01 X46.561 Y-21.561 Z-411.280
G01 X46.799 Y-21.250 Z-411.280
G01 X46.949 Y-20.888 Z-411.280
G01 X47.000 Y-20.500 Z-411.280
G01 F100.000
G01 Z-401.280
G01 F100.000
G01 Z-401.280
G01 X47.000 Y20.500
G01 F30.000
G01 X47.000 Y20.500 Z-411.280
G01 X46.949 Y20.888 Z-411.280
G01 X46.799 Y21.250 Z-411.280
G01 X46.561 Y21.561 Z-411.280
G01 X46.250 Y21.799 Z-411.280
G01 X45.888 Y21.949 Z-411.280
G01 X45.500 Y22.000 Z-411.280
G01 X45.112 Y21.949 Z-411.280
G01 X44.750 Y21.799 Z-411.280
G01 X44.439 Y21.561 Z-411.280
G01 X44.201 Y21.250 Z-411.280
G01 X44.051 Y20.888 Z-411.280
G01 X44.000 Y20.500 Z-411.280
G01 X44.051 Y20.112 Z-411.280
G01 X44.201 Y19.750 Z-411.280
G01 X44.439 Y19.439 Z-411.280
G01 X44.750 Y19.201 Z-411.280
G01 X45.112 Y19.051 Z-411.280
G01 X45.500 Y19.000 Z-411.280
G01 X45.888 Y19.051 Z-411.280
G01 X46.250 Y19.201 Z-411.280
G01 X46.561 Y19.439 Z-411.280
G01 X46.799 Y19.750 Z-411.280
G01 X46.949 Y20.112 Z-411.280
G01 X47.000 Y20.500 Z-411.280
G01 F100.000
G01 Z-401.280
G01 F100.000
G01 Z-401.280
G01 X-44.000 Y20.500
G01 F30.000
G01 X-44.000 Y20.500 Z-411.280
G01 X-44.051 Y20.888 Z-411.280
G01 X-44.201 Y21.250 Z-411.280
G01 X-44.439 Y21.561 Z-411.280
G01 X-44.750 Y21.799 Z-411.280
G01 X-45.112 Y21.949 Z-411.280
G01 X-45.500 Y22.000 Z-411.280
G01 X-45.888 Y21.949 Z-411.280
G01 X-46.250 Y21.799 Z-411.280
G01 X-46.561 Y21.561 Z-411.280
G01 X-46.799 Y21.250 Z-411.280
G01 X-46.949 Y20.888 Z-411.280
G01 X-47.000 Y20.500 Z-411.280
G01 X-46.949 Y20.112 Z-411.280
G01 X-46.799 Y19.750 Z-411.280
G01 X-46.561 Y19.439 Z-411.280
G01 X-46.250 Y19.201 Z-411.280
G01 X-45.888 Y19.051 Z-411.280
G01 X-45.500 Y19.000 Z-411.280
G01 X-45.112 Y19.051 Z-411.280
G01 X-44.750 Y19.201 Z-411.280
G01 X-44.439 Y19.439 Z-411.280
G01 X-44.201 Y19.750 Z-411.280
G01 X-44.051 Y20.112 Z-411.280
G01 X-44.000 Y20.500 Z-411.280
G01 F100.000
G01 Z-401.280
G28
; End drawing
